[{"name":"BRITE-PL2 (HEWELIUSZ)","l1":"1 40119U 14049B   26183.57036978  .00001939  00000+0  18404-3 0  9999","l2":"2 40119  97.9112 295.6901 0015079  61.6638 298.6101 14.94649737643745","cat":"science"},{"name":"PERSEUS-M1","l1":"1 40039U 14033AF  26183.55731494  .00001426  00000+0  13352-3 0  9994","l2":"2 40039  97.9648 127.9422 0010124 243.6906 116.3274 14.95683129652933","cat":"other"},{"name":"POLYITAN-1","l1":"1 40042U 14033AJ  26182.79921080  .00023270  00000+0  71283-3 0  9993","l2":"2 40042  98.0933 210.4473 0008748 101.4445 258.7779 15.33780662655834","cat":"other"},{"name":"TIGRISAT","l1":"1 40043U 14033AK  26183.40944942  .00002010  00000+0  23566-3 0  9995","l2":"2 40043  97.7850 333.0739 0049718  26.2474 334.1244 14.85217170647881","cat":"other"},{"name":"AEROCUBE 6A","l1":"1 40045U 14033AM  26183.71904693  .00005997  00000+0  50233-3 0  9998","l2":"2 40045  97.7231 350.5043 0037730 323.8323  36.0349 14.98242397648943","cat":"science"},{"name":"AEROCUBE 6B","l1":"1 40046U 14033AN  26183.70624642  .00005507  00000+0  44461-3 0  9994","l2":"2 40046  97.7222 350.3162 0037724 314.5022  45.3120 14.99703681649085","cat":"science"},{"name":"CANX-4","l1":"1 40055U 14034C   26183.62082898  .00001078  00000+0  14540-3 0  9991","l2":"2 40055  98.3101  59.4991 0012018 327.0410  33.0051 14.81292976646810","cat":"other"},{"name":"CANX-5","l1":"1 40056U 14034D   26183.61908220  .00001082  00000+0  14587-3 0  9993","l2":"2 40056  98.3103  59.5418 0012021 327.2625  32.7840 14.81310317637623","cat":"other"},{"name":"UKUBE-1","l1":"1 40074U 14037F   26183.24039049  .00009513  00000+0  53119-3 0  9990","l2":"2 40074  98.4235 188.0961 0003152 109.2963 250.8606 15.13782027650837","cat":"other"},{"name":"AEROCUBE 5C","l1":"1 40965U 15058B   26183.45857870  .00002785  00000+0  24998-3 0  9993","l2":"2 40965  64.7652 215.0796 0131523  57.3193 304.0524 14.91517262367933","cat":"science"},{"name":"AEROCUBE 7","l1":"1 40966U 15058C   26183.74546286  .00004536  00000+0  36312-3 0  9991","l2":"2 40966  64.7602 196.0802 0121250  55.5551 305.6951 14.95821322368288","cat":"science"},{"name":"FOX-1A (AO-85)","l1":"1 40967U 15058D   26183.57819337  .00002553  00000+0  23340-3 0  9997","l2":"2 40967  64.7737 231.1515 0131455  50.6094 310.6573 14.91033762115865","cat":"other"},{"name":"SINOD-D 1","l1":"1 40968U 15058E   26183.52100216  .00004032  00000+0  32378-3 0  9997","l2":"2 40968  64.7729 210.8898 0120081  47.0354 314.0753 14.95996618118950","cat":"other"},{"name":"SNAP-3 ALICE","l1":"1 40970U 15058G   26183.60399244  .00135133  00000+0  13768-2 0  9998","l2":"2 40970  64.7494  50.4913 0023704 359.6109   0.5016 15.64101419119293","cat":"other"},{"name":"LMRST-SAT","l1":"1 40971U 15058H   26183.53744159  .00002453  00000+0  22632-3 0  9999","l2":"2 40971  64.7742 227.6452 0133008  52.6570 308.6572 14.90650106115843","cat":"other"},{"name":"SNAP-3 EDDIE","l1":"1 40972U 15058J   26183.00692072  .00153398  00000+0  14946-2 0  9991","l2":"2 40972  64.7410  43.1813 0024440   3.4118 356.7192 15.65141975121345","cat":"other"},{"name":"PROPCUBE 3","l1":"1 40973U 15058K   26183.46834676  .00003788  00000+0  31526-3 0  9991","l2":"2 40973  64.7664 204.7888 0124916  53.9075 307.3528 14.94337998117089","cat":"other"},{"name":"BISONSAT","l1":"1 40974U 15058L   26183.79541623  .00016879  00000+0  79832-3 0  9992","l2":"2 40974  64.7586 123.1656 0080787  41.0430 319.6734 15.16618830117986","cat":"other"},{"name":"SNAP-3 JIMI","l1":"1 40975U 15058M   26183.36622354  .00008037  00000+0  54509-3 0  9998","l2":"2 40975  64.7634 171.7410 0107006  49.3040 311.7313 15.02457254116509","cat":"other"},{"name":"PROPCUBE 1 (FLORA)","l1":"1 40976U 15058N   26183.57360777  .00002293  00000+0  22099-3 0  9997","l2":"2 40976  64.7739 247.5480 0131626  54.9311 306.4062 14.89283455118556","cat":"other"},{"name":"SINOD-D 3","l1":"1 40977U 15058P   26183.43552986  .00003574  00000+0  30359-3 0  9999","l2":"2 40977  64.7707 228.2010 0120158  52.0872 309.1031 14.94100462117036","cat":"other"},{"name":"HORYU-4","l1":"1 41340U 16012D   26182.79199294  .04204222 -38650-5  11151-2 0  9996","l2":"2 41340  30.9791 330.1929 0008659 346.1826  13.8606 16.27112331573161","cat":"other"},{"name":"RAVAN","l1":"1 41849U 16067B   26183.67674267  .00053994  00000+0  76683-3 0  9993","l2":"2 41849  97.9862  75.0539 0001832 318.4680  41.6434 15.56248223530101","cat":"other"},{"name":"CELTEE 1","l1":"1 41850U 16067C   26183.61402913  .00005728  00000+0  27081-3 0  9996","l2":"2 41850  98.0649  51.2329 0001804 125.0064 235.1339 15.19833278528221","cat":"other"},{"name":"OPTICUBE 04","l1":"1 41851U 16067D   26183.12476192  .00002704  00000+0  17157-3 0  9997","l2":"2 41851  98.0684  36.1871 0016951  69.3371 290.9672 15.09725753527422","cat":"other"},{"name":"AEROCUBE 8D","l1":"1 41852U 16067E   26183.58022601  .00008564  00000+0  35026-3 0  9995","l2":"2 41852  98.0657  54.9225 0005007  87.2317 272.9492 15.24614243528411","cat":"science"},{"name":"AEROCUBE 8C","l1":"1 41853U 16067F   26182.35587173  .00010093  00000+0  40921-3 0  9990","l2":"2 41853  98.0534  50.8147 0005644  28.9587 331.1961 15.24848091528220","cat":"science"},{"name":"CORVUS BC2","l1":"1 42846U 17042X   26183.40685671  .00004259  00000+0  29262-3 0  9998","l2":"2 42846  97.4073 344.1660 0014119  63.2233 297.0438 15.06389012489352","cat":"other"},{"name":"CORVUS BC1","l1":"1 42847U 17042Y   26183.73188119  .00004599  00000+0  31433-3 0  9990","l2":"2 42847  97.4113 345.3026 0012577  40.7159 319.5006 15.06558945489433","cat":"other"},{"name":"MAKERSAT 0","l1":"1 43016U 17073D   26182.74249883  .00021095  00000+0  56439-3 0  9992","l2":"2 43016  97.4602  65.3778 0104893 220.3477 138.9950 15.32570583468697","cat":"other"}]